CBERS 4                 
1 40336U 14079A   26163.29747813 -.00000031  00000+0  38133-5 0  9993
2 40336  98.3538 220.2825 0001949  69.1149 291.0246 14.35507309603255
