[
  {
    "OBJECT_NAME": "CBERS 4",
    "OBJECT_ID": "2014-079A",
    "EPOCH": "2026-06-12T07:08:22.110432",
    "MEAN_MOTION": 14.35507309,
    "ECCENTRICITY": 0.00019492,
    "INCLINATION": 98.3538,
    "RA_OF_ASC_NODE": 220.2825,
    "ARG_OF_PERICENTER": 69.1149,
    "MEAN_ANOMALY": 291.0246,
    "EPHEMERIS_TYPE": 0,
    "CLASSIFICATION_TYPE": "U",
    "NORAD_CAT_ID": 40336,
    "ELEMENT_SET_NO": 999,
    "REV_AT_EPOCH": 60325,
    "BSTAR": 0.00000381328,
    "MEAN_MOTION_DOT": -3.1e-7,
    "MEAN_MOTION_DDOT": 0
  }
]
